{
    "links": {
        "self": "http://www.neowsapp.com/rest/v1/neo/3720001?api_key=iIulBulltgU6a56xZRHN4H3l9WmuAYTsLGpBGhQ2"
    },
    "id": "3720001",
    "neo_reference_id": "3720001",
    "name": "(2015 KU120)",
    "designation": "2015 KU120",
    "nasa_jpl_url": "http://ssd.jpl.nasa.gov/sbdb.cgi?sstr=3720001",
    "absolute_magnitude_h": 22.9,
    "estimated_diameter": {
        "kilometers": {
            "estimated_diameter_min": 0.0699125232,
            "estimated_diameter_max": 0.1563291544
        },
        "meters": {
            "estimated_diameter_min": 69.9125232246,
            "estimated_diameter_max": 156.3291544087
        },
        "miles": {
            "estimated_diameter_min": 0.0434416145,
            "estimated_diameter_max": 0.097138403
        },
        "feet": {
            "estimated_diameter_min": 229.3718026961,
            "estimated_diameter_max": 512.8909429502
        }
    },
    "is_potentially_hazardous_asteroid": false,
    "close_approach_data": [
        {
            "close_approach_date": "2015-05-15",
            "close_approach_date_full": "2015-May-15 23:18",
            "epoch_date_close_approach": 1431731880000,
            "relative_velocity": {
                "kilometers_per_second": "10.1079930969",
                "kilometers_per_hour": "36388.7751489509",
                "miles_per_hour": "22610.5697585245"
            },
            "miss_distance": {
                "astronomical": "0.1796943099",
                "lunar": "69.9010865511",
                "kilometers": "26881886.012159913",
                "miles": "16703629.4103682794"
            },
            "orbiting_body": "Earth"
        },
        {
            "close_approach_date": "2019-06-09",
            "close_approach_date_full": "2019-Jun-09 01:42",
            "epoch_date_close_approach": 1560044520000,
            "relative_velocity": {
                "kilometers_per_second": "13.2148562953",
                "kilometers_per_hour": "47573.4826629562",
                "miles_per_hour": "29560.3120468796"
            },
            "miss_distance": {
                "astronomical": "0.4779553463",
                "lunar": "185.9246297107",
                "kilometers": "71501101.761592381",
                "miles": "44428724.4473256178"
            },
            "orbiting_body": "Earth"
        }
    ],
    "orbital_data": {
        "orbit_id": "7",
        "orbit_determination_date": "2017-04-06 08:33:29",
        "first_observation_date": "2015-05-23",
        "last_observation_date": "2015-06-09",
        "data_arc_in_days": 17,
        "observations_used": 22,
        "orbit_uncertainty": "8",
        "minimum_orbit_intersection": ".163799",
        "jupiter_tisserand_invariant": "5.252",
        "epoch_osculation": "2457168.5",
        "eccentricity": ".04504177046678558",
        "semi_major_axis": "1.196772912579048",
        "inclination": "19.3373857145124",
        "ascending_node_longitude": "226.583642708605",
        "orbital_period": "478.2071367962744",
        "perihelion_distance": "1.142868141749796",
        "perihelion_argument": "68.87079324494609",
        "aphelion_distance": "1.2506776834083",
        "perihelion_time": "2457228.923673638589",
        "mean_anomaly": "314.5123423802873",
        "mean_motion": ".7528118513910156",
        "equinox": "J2000",
        "orbit_class": {
            "orbit_class_type": "AMO",
            "orbit_class_description": "Near-Earth asteroid orbits similar to that of 1221 Amor",
            "orbit_class_range": "1.017 AU < q (perihelion) < 1.3 AU"
        }
    },
    "is_sentry_object": false
}